[ {"norad_id": 62221, "name": "STARLINK-11468 [DTC]", "object_type": "", "perigee_km": 6736.7, "apogee_km": 6739.0, "inclination_deg": 53.1566, "epoch_utc": "2026-06-11T18:26:35.083104+00:00", "omm": {}, "tle": ["1 62221U 24231D   26162.76846161  .00164708  00000-0  13373-2 0  9996", "2 62221  53.1566 357.7850 0001715  31.3306 328.7814 15.69713662 88180"]}, {"norad_id": 62235, "name": "STARLINK-32631", "object_type": "", "perigee_km": 6848.0, "apogee_km": 6849.7, "inclination_deg": 53.158, "epoch_utc": "2026-06-11T04:37:09.057216+00:00", "omm": {}, "tle": ["1 62235U 24231T   26162.19246594  .00014303  00000-0  47174-3 0  9994", "2 62235  53.1580 131.8644 0001265  78.9913 281.1231 15.31703651 86262"]}, {"norad_id": 62250, "name": "QIANFAN-49", "object_type": "", "perigee_km": 7435.1, "apogee_km": 7458.2, "inclination_deg": 89.0083, "epoch_utc": "2026-06-11T22:12:08.808480+00:00", "omm": {}, "tle": ["1 62250U 24232P   26162.92510195  .00000089  00000-0  11918-3 0  9997", "2 62250  89.0083  23.0311 0015525  37.6640 322.5595 13.51011229 92309"]}, {"norad_id": 62271, "name": "STARLINK-11489 [DTC]", "object_type": "", "perigee_km": 6733.6, "apogee_km": 6735.5, "inclination_deg": 42.9998, "epoch_utc": "2026-06-11T06:27:48.938688+00:00", "omm": {}, "tle": ["1 62271U 24237E   26162.26931642  .00075352  00000-0  58447-3 0  9999", "2 62271  42.9998 213.1049 0001424 252.0827 107.9885 15.70878675 87768"]}, {"norad_id": 62285, "name": "STARLINK-33550", "object_type": "", "perigee_km": 6860.4, "apogee_km": 6862.2, "inclination_deg": 43.0039, "epoch_utc": "2026-06-11T22:00:01.999584+00:00", "omm": {}, "tle": ["1 62285U 24237U   26162.91668981  .00002490  00000-0  10011-3 0  9997", "2 62285  43.0039  44.1634 0001344 267.9424  81.4525 15.27539757  5755"]}, {"norad_id": 62305, "name": "STARLINK-32649", "object_type": "", "perigee_km": 6839.9, "apogee_km": 6841.8, "inclination_deg": 53.1599, "epoch_utc": "2026-06-11T22:00:01.999584+00:00", "omm": {}, "tle": ["1 62305U 24239E   26162.91668981  .00028249  00000-0  84399-3 0  9992", "2 62305  53.1599 115.6549 0001350  89.5359  99.1391 15.34401915  5920"]}, {"norad_id": 62320, "name": "STARLINK-32481", "object_type": "", "perigee_km": 6852.4, "apogee_km": 6854.2, "inclination_deg": 53.1594, "epoch_utc": "2026-06-11T23:27:51.555456+00:00", "omm": {}, "tle": ["1 62320U 24239V   26162.97768004  .00020771  00000-0  71130-3 0  9993", "2 62320  53.1594 102.9128 0001323 104.1758 255.9390 15.30207597 84004"]}, {"norad_id": 62334, "name": "PIESAT-2 10", "object_type": "", "perigee_km": 6900.3, "apogee_km": 6903.1, "inclination_deg": 97.5333, "epoch_utc": "2026-06-11T22:49:51.364416+00:00", "omm": {}, "tle": ["1 62334U 24241B   26162.95128894  .00007562  00000-0  41843-3 0  9997", "2 62334  97.5333 111.0615 0002026  79.9667 280.1793 15.14135213 82016"]}, {"norad_id": 62380, "name": "BANDWAGON-2 OBJECT D", "object_type": "", "perigee_km": 6848.1, "apogee_km": 6854.8, "inclination_deg": 44.9948, "epoch_utc": "2026-06-11T03:35:05.094528+00:00", "omm": {}, "tle": ["1 62380U 24247D   26162.14936452  .00007350  00000-0  25181-3 0  9994", "2 62380  44.9948 322.6291 0004876 237.4142 122.6272 15.30831367 82078"]}, {"norad_id": 62395, "name": "BANDWAGON-2 OBJECT U", "object_type": "", "perigee_km": 6796.0, "apogee_km": 6806.8, "inclination_deg": 44.9949, "epoch_utc": "2026-06-11T19:08:34.404288+00:00", "omm": {}, "tle": ["1 62395U 24247U   26162.79762042  .00034861  00000-0  66071-3 0  9993", "2 62395  44.9949 286.5600 0007978 265.3916  94.6064 15.47761090 82566"]}, {"norad_id": 62414, "name": "STARLINK-11445 [DTC]", "object_type": "", "perigee_km": 6733.4, "apogee_km": 6735.2, "inclination_deg": 42.9988, "epoch_utc": "2026-06-11T03:59:49.976160+00:00", "omm": {}, "tle": ["1 62414U 24249F   26162.16655065  .00095943  00000-0  73896-3 0  9995", "2 62414  42.9988 324.0724 0001322 302.5851  57.4889 15.70956892 84187"]}, {"norad_id": 62429, "name": "STARLINK-32418", "object_type": "", "perigee_km": 6859.9, "apogee_km": 6862.3, "inclination_deg": 42.9935, "epoch_utc": "2026-06-11T15:30:18.635328+00:00", "omm": {}, "tle": ["1 62429U 24249W   26162.64604902  .00025845  00000-0  94483-3 0  9997", "2 62429  42.9935 143.4005 0001746 267.9258  92.1394 15.27599507 82188"]}, {"norad_id": 62444, "name": "STARLINK-32737", "object_type": "", "perigee_km": 6852.7, "apogee_km": 6854.1, "inclination_deg": 53.1582, "epoch_utc": "2026-06-11T22:58:55.176384+00:00", "omm": {}, "tle": ["1 62444U 24251N   26162.95758306  .00014727  00000-0  50839-3 0  9993", "2 62444  53.1582 255.1395 0001027 105.1439 254.9675 15.30198635 82413"]}, {"norad_id": 62460, "name": "SDX02", "object_type": "", "perigee_km": 6737.6, "apogee_km": 6741.9, "inclination_deg": 54.9943, "epoch_utc": "2026-06-11T21:34:10.234848+00:00", "omm": {}, "tle": ["1 62460U 24253B   26162.89872957  .00076845  00000-0  65208-3 0  9990", "2 62460  54.9943  12.7981 0003179 149.9044 210.2181 15.69039155 81696"]}, {"norad_id": 62476, "name": "STARLINK-32734", "object_type": "", "perigee_km": 6860.6, "apogee_km": 6861.6, "inclination_deg": 42.9976, "epoch_utc": "2026-06-11T09:41:32.068896+00:00", "omm": {}, "tle": ["1 62476U 24254Q   26162.40384339  .00016995  00000-0  62504-3 0  9993", "2 62476  42.9976 207.2656 0000772 246.0424 114.0347 15.27613257 81985"]}, {"norad_id": 62492, "name": "STARLINK-32757", "object_type": "", "perigee_km": 6860.1, "apogee_km": 6862.2, "inclination_deg": 42.9992, "epoch_utc": "2026-06-11T03:44:14.900064+00:00", "omm": {}, "tle": ["1 62492U 25003F   26162.15572801  .00021550  00000-0  79007-3 0  9998", "2 62492  42.9992 121.3195 0001474 260.5555  99.5130 15.27591403 80840"]}, {"norad_id": 62506, "name": "STARLINK-32681", "object_type": "", "perigee_km": 6858.6, "apogee_km": 6863.7, "inclination_deg": 42.9866, "epoch_utc": "2026-06-11T03:27:03.738528+00:00", "omm": {}, "tle": ["1 62506U 25003V   26162.14379327  .00015530  00000-0  57244-3 0  9991", "2 62506  42.9866 102.6446 0003767 264.8048  95.2374 15.27589790 81174"]}, {"norad_id": 62520, "name": "STARLINK-11482 [DTC]", "object_type": "", "perigee_km": 6733.6, "apogee_km": 6736.0, "inclination_deg": 43.0016, "epoch_utc": "2026-06-10T11:12:19.125792+00:00", "omm": {}, "tle": ["1 62520U 25004K   26161.46688803  .00155079  00000-0  11927-2 0  9994", "2 62520  43.0016 231.1710 0001834 258.9258 101.1403 15.70778073 81803"]}, {"norad_id": 62556, "name": "STARLINK-11515 [DTC]", "object_type": "", "perigee_km": 6733.6, "apogee_km": 6735.1, "inclination_deg": 42.9985, "epoch_utc": "2026-06-10T16:16:46.207776+00:00", "omm": {}, "tle": ["1 62556U 25006C   26161.67831259  .00193478  00000-0  14701-2 0  9991", "2 62556  42.9985 299.7012 0001134 248.5822 111.4924 15.70942665 81223"]}, {"norad_id": 62570, "name": "STARLINK-32764", "object_type": "", "perigee_km": 6858.9, "apogee_km": 6863.3, "inclination_deg": 43.0029, "epoch_utc": "2026-06-11T14:51:56.670624+00:00", "omm": {}, "tle": ["1 62570U 25006S   26162.61940591  .00016088  00000-0  59235-3 0  9995", "2 62570  43.0029 122.4796 0003236 275.7748  84.2735 15.27606826 79227"]}, {"norad_id": 62585, "name": "CENTISPACE-1 S16", "object_type": "", "perigee_km": 7329.5, "apogee_km": 7350.2, "inclination_deg": 54.989, "epoch_utc": "2026-06-11T21:35:29.709888+00:00", "omm": {}, "tle": ["1 62585U 25007L   26162.89964942 -.00000061  00000-0  75568-4 0  9991", "2 62585  54.9890 309.7755 0014067  80.5731 279.6815 13.80612371 73988"]}, {"norad_id": 62601, "name": "STARLINK-32767", "object_type": "", "perigee_km": 6859.1, "apogee_km": 6863.3, "inclination_deg": 43.009, "epoch_utc": "2026-06-11T13:38:42.421056+00:00", "omm": {}, "tle": ["1 62601U 25008Q   26162.56854654  .00019296  00000-0  70888-3 0  9991", "2 62601  43.0090 107.5945 0003027 264.1417  95.9090 15.27579269 79989"]}, {"norad_id": 62617, "name": "SCOT-1 (SCOT)", "object_type": "", "perigee_km": 6782.7, "apogee_km": 6786.2, "inclination_deg": 97.3873, "epoch_utc": "2026-06-11T19:10:43.636224+00:00", "omm": {}, "tle": ["1 62617U 25009J   26162.79911616  .00057905  00000-0  90605-3 0  9994", "2 62617  97.3873 250.4828 0002582 291.3901  68.7076 15.53569395 78518"]}, {"norad_id": 62631, "name": "PELICAN-2", "object_type": "", "perigee_km": 6821.9, "apogee_km": 6822.2, "inclination_deg": 97.2788, "epoch_utc": "2026-06-11T18:50:16.025280+00:00", "omm": {}, "tle": ["1 62631U 25009Y   26162.78490770  .00000016  00000-0  23950-5 0  9994", "2 62631  97.2788 253.6424 0000247 128.6264 231.5005 15.40736032 78720"]}, {"norad_id": 62647, "name": "FLOCK 4G-23", "object_type": "", "perigee_km": 6846.9, "apogee_km": 6847.9, "inclination_deg": 97.394, "epoch_utc": "2026-06-11T18:05:48.960960+00:00", "omm": {}, "tle": ["1 62647U 25009AQ  26162.75403890  .00037434  00000-0  12018-2 0  9999", "2 62647  97.3940 244.4275 0000703 214.0239 146.0958 15.32206027 78093"]}, {"norad_id": 62661, "name": "FLOCK 4G-2", "object_type": "", "perigee_km": 6852.4, "apogee_km": 6857.2, "inclination_deg": 97.4013, "epoch_utc": "2026-06-11T18:50:00.362688+00:00", "omm": {}, "tle": ["1 62661U 25009BE  26162.78472642  .00008887  00000-0  31115-3 0  9999", "2 62661  97.4013 244.8270 0003494   4.6629 355.4643 15.29726527135703"]}, {"norad_id": 62676, "name": "FOSSASAT-2E19 (TAT-E)", "object_type": "", "perigee_km": 6877.0, "apogee_km": 6884.2, "inclination_deg": 97.3964, "epoch_utc": "2026-06-11T17:09:20.157696+00:00", "omm": {}, "tle": ["1 62676U 25009BV  26162.71481664  .00002295  00000-0  10621-3 0  9998", "2 62676  97.3964 241.0896 0005255  16.8302 343.3107 15.21124019 77869"]}, {"norad_id": 62696, "name": "LEMUR-2-STAR-FOX", "object_type": "", "perigee_km": 6935.3, "apogee_km": 6939.8, "inclination_deg": 97.6954, "epoch_utc": "2026-06-11T18:21:25.272576+00:00", "omm": {}, "tle": ["1 62696U 25009CR  26162.76487584  .00007272  00000-0  55308-3 0  9993", "2 62696  97.6954 244.4125 0003268 125.5133 234.6397 15.02423491 76741"]}]